NORAD_CAT_ID,OBJECT_NAME,OBJECT_TYPE,EPOCH,MEAN_MOTION,ECCENTRICITY,INCLINATION,RA_OF_ASC_NODE,ARG_OF_PERICENTER,MEAN_ANOMALY,BSTAR,MEAN_MOTION_DOT,MEAN_MOTION_DDOT,TLE_LINE0,TLE_LINE1,TLE_LINE2,SEMIMAJOR_AXIS,PERIOD,APOGEE,PERIGEE,DECAYED
50177.0,STARLINK-3282,PAYLOAD,2022-03-08 22:00:00,15.30450213,0.000185,53.2174,332.4480000000001,38.2306,99.6738,-0.023756,-0.00658715,0.0,0 STARLINK-3282,1 50177U 21125X   22067.91667824 -.00658715  00000-0 -23756-1 0  9999,2 50177  53.2174 332.4480 0001850  38.2306  99.6738 15.30450213  3665,6852.605,94.09,475.73800000000006,473.202,0.0
50177.0,STARLINK-3282,PAYLOAD,2022-03-09 06:00:00,15.2998413,0.0001885,53.2171,330.9019,38.3164,136.8655,-0.024107,-0.00658816,0.0,0 STARLINK-3282,1 50177U 21125X   22068.25001157 -.00658816  00000-0 -24107-1 0  9991,2 50177  53.2171 330.9019 0001885  38.3164 136.8655 15.29984130 15476,6853.996999999999,94.119,477.154,474.57,0.0
50177.0,STARLINK-3282,PAYLOAD,2022-03-09 14:00:01,15.29517129,0.0001698,53.2172,329.3545,45.1714,166.7296,-0.02444,-0.00658317,0.0,0 STARLINK-3282,1 50177U 21125X   22068.58334491 -.00658317  00000-0 -24440-1 0  9993,2 50177  53.2172 329.3545 0001698  45.1714 166.7296 15.29517129  3674,6855.392,94.147,478.421,476.093,0.0
50177.0,STARLINK-3282,PAYLOAD,2022-03-09 22:00:01,15.29049502,0.0001871,53.2174,327.8114,40.4767,207.6446,-0.024727,-0.00656626,0.0,0 STARLINK-3282,1 50177U 21125X   22068.91668981 -.00656626  00000-0 -24727-1 0  9993,2 50177  53.2174 327.8114 0001871  40.4767 207.6446 15.29049502  3655,6856.7890000000025,94.176,479.937,477.371,0.0
50177.0,STARLINK-3282,PAYLOAD,2022-03-10 06:00:00,15.28476849,0.0001631999999999,53.2164,326.2696,51.2708,232.4388,-0.019379,-0.00508937,0.0,0 STARLINK-3282,1 50177U 21125X   22069.25001157 -.00508937  00000-0 -19379-1 0  9995,2 50177  53.2164 326.2696 0001632  51.2708 232.4388 15.28476849 15620,6858.502,94.211,481.486,479.24800000000016,0.0
50177.0,STARLINK-3282,PAYLOAD,2022-03-10 14:00:01,15.28015005,0.0001729,53.217,324.7259,45.658,273.0833,-0.01976,-0.00511462,0.0,0 STARLINK-3282,1 50177U 21125X   22069.58334491 -.00511462  00000-0 -19760-1 0  9992,2 50177  53.2170 324.7259 0001729  45.6580 273.0833 15.28015005  3623,6859.884,94.24,482.935,480.56300000000016,0.0
50177.0,STARLINK-3282,PAYLOAD,2022-03-10 20:00:01,15.27767645,0.0001735,53.2175,323.5694,44.8676,209.7307,-0.025797,-0.00658382,0.0,0 STARLINK-3282,1 50177U 21125X   22069.83334491 -.00658382  00000-0 -25797-1 0  9990,2 50177  53.2175 323.5694 0001735  44.8676 209.7307 15.27767645 15710,6860.624,94.255,483.68,481.299,0.0
50177.0,STARLINK-3282,PAYLOAD,2022-03-10 22:00:01,15.27651607,0.0001665999999999,53.2174,323.1847,40.5236,312.7042,-0.025933,-0.00659416,0.0,0 STARLINK-3282,1 50177U 21125X   22069.91668981 -.00659416  00000-0 -25933-1 0  9994,2 50177  53.2174 323.1847 0001666  40.5236 312.7042 15.27651607  3654,6860.972,94.262,483.98,481.694,0.0
50177.0,STARLINK-3282,PAYLOAD,2022-03-11 14:00:01,15.26716936,0.0001558,53.2173,320.1043,42.662,17.772000000000006,-0.0266,-0.00657466,0.0,0 STARLINK-3282,1 50177U 21125X   22070.58334491 -.00657466  00000-0 -26600-1 0  9990,2 50177  53.2173 320.1043 0001558  42.6620  17.7720 15.26716936  3637,6863.772,94.32,486.706,484.567,0.0
50177.0,STARLINK-3282,PAYLOAD,2022-03-11 22:00:00,15.26251848,0.0001914,53.2173,318.5681,34.3227,58.9029,-0.027076,-0.00659702,0.0,0 STARLINK-3282,1 50177U 21125X   22070.91667824 -.00659702  00000-0 -27076-1 0  9999,2 50177  53.2173 318.5681 0001914  34.3227  58.9029 15.26251848 15877,6865.166,94.349,488.345,485.717,0.0
50177.0,STARLINK-3282,PAYLOAD,2022-03-12 14:00:01,15.25319287,0.0001706,53.2172,315.4941,45.3946,111.7363,-0.027912,-0.00660998,0.0,0 STARLINK-3282,1 50177U 21125X   22071.58334491 -.00660998  00000-0 -27912-1 0  9992,2 50177  53.2172 315.4941 0001706  45.3946 111.7363 15.25319287  3664,6867.964,94.406,491.001,488.657,0.0
50177.0,STARLINK-3282,PAYLOAD,2022-03-12 22:00:00,15.24850418,0.0001911,53.2173,313.9611,41.0505,147.1916,-0.028122,-0.00656949,0.0,0 STARLINK-3282,1 50177U 21125X   22071.91667824 -.00656949  00000-0 -28122-1 0  9993,2 50177  53.2173 313.9611 0001911  41.0505 147.1916 15.24850418  3666,6869.371999999999,94.435,492.549,489.924,0.0
50177.0,STARLINK-3282,PAYLOAD,2022-03-13 06:00:00,15.24385964,0.000153,53.2172,312.4275,58.3433,160.4487,-0.028667,-0.006601,0.0,0 STARLINK-3282,1 50177U 21125X   22072.25001157 -.00660100  00000-0 -28667-1 0  9990,2 50177  53.2172 312.4275 0001530  58.3433 160.4487 15.24385964 16083,6870.767,94.464,493.6830000000001,491.581,0.0
50177.0,STARLINK-3282,PAYLOAD,2022-03-13 14:00:01,15.23918611,0.0001621,53.2172,310.8934,51.2366,197.5468,-0.029031,-0.00659248,0.0,0 STARLINK-3282,1 50177U 21125X   22072.58334491 -.00659248  00000-0 -29031-1 0  9993,2 50177  53.2172 310.8934 0001621  51.2366 197.5468 15.23918611  3665,6872.172,94.493,495.151,492.923,0.0
50177.0,STARLINK-3282,PAYLOAD,2022-03-13 22:00:01,15.23451088,0.0001885,53.2173,309.3640000000001,39.39,238.8855,-0.029349,-0.00657385,0.0,0 STARLINK-3282,1 50177U 21125X   22072.91668981 -.00657385  00000-0 -29349-1 0  9996,2 50177  53.2173 309.3640 0001885  39.3900 238.8855 15.23451088  3654,6873.5769999999975,94.522,496.73800000000006,494.147,0.0
50177.0,STARLINK-3282,PAYLOAD,2022-03-14 14:00:01,15.2251707,0.0001601,53.2174,306.3029,44.7646,290.6891,-0.030109,-0.0065596999999999,0.0,0 STARLINK-3282,1 50177U 21125X   22073.58335648 -.00655970  00000-0 -30109-1 0  9995,2 50177  53.2174 306.3029 0001601  44.7646 290.6891 15.22517070 16288,6876.388000000001,94.58,499.354,497.152,0.0
50177.0,STARLINK-3282,PAYLOAD,2022-03-14 20:00:01,15.22168593,0.0001717,53.2174,305.1584,43.7461,222.5055,-0.030495,-0.00657443,0.0,0 STARLINK-3282,1 50177U 21125X   22073.83334491 -.00657443  00000-0 -30495-1 0  9993,2 50177  53.2174 305.1584 0001717  43.7461 222.5055 15.22168593  3625,6877.438,94.602,500.484,498.122,0.0
50177.0,STARLINK-3282,PAYLOAD,2022-03-15 02:00:01,15.21814558,0.0001879,53.2174,304.0137,40.955,155.8457,-0.030492,-0.00651024,0.0,0 STARLINK-3282,1 50177U 21125X   22074.08334491 -.00651024  00000-0 -30492-1 0  9997,2 50177  53.2174 304.0137 0001879  40.9550 155.8457 15.21814558  3637,6878.504,94.624,501.662,499.077,0.0
50177.0,STARLINK-3282,PAYLOAD,2022-03-15 22:00:00,15.2065422,0.00019,53.2174,300.1995,36.0593,46.9545,-0.032105,-0.00661587,0.0,0 STARLINK-3282,1 50177U 21125X   22074.91667824 -.00661587  00000-0 -32105-1 0  9996,2 50177  53.2174 300.1995 0001900  36.0593  46.9545 15.20654220 16486,6882.003000000002,94.696,505.176,502.56,0.0
50177.0,STARLINK-3282,PAYLOAD,2022-03-16 14:00:01,15.19719512,0.000183,53.2175,297.1514,40.8848,92.5796,-0.032817,-0.00665385,0.0,0 STARLINK-3282,1 50177U 21125X   22075.58334491 -.00665385  00000-0 -32817-1 0  9991,2 50177  53.2175 297.1514 0001830  40.8848  92.5796 15.19719512  3640,6884.825,94.754,507.95,505.43,0.0
50177.0,STARLINK-3282,PAYLOAD,2022-03-16 20:00:01,15.19370097,0.0001958,53.2174,296.0118,33.8256,27.9782,-0.033217,-0.00666595,0.0,0 STARLINK-3282,1 50177U 21125X   22075.83334491 -.00666595  00000-0 -33217-1 0  9998,2 50177  53.2174 296.0118 0001958  33.8256  27.9782 15.19370097  3630,6885.88,94.776,509.093,506.397,0.0
50177.0,STARLINK-3282,PAYLOAD,2022-03-17 06:00:00,15.187862099999998,0.0001652,53.2173,294.1107,50.897,130.7738,-0.033723,-0.00665391,0.0,0 STARLINK-3282,1 50177U 21125X   22076.25001157 -.00665391  00000-0 -33723-1 0  9990,2 50177  53.2173 294.1107 0001652  50.8970 130.7738 15.18786210 16690,6887.645,94.813,510.648,508.372,0.0
50177.0,STARLINK-3282,PAYLOAD,2022-03-17 14:00:01,15.18319855,0.0001776,53.2174,292.5905,46.2825,158.6509,-0.034165,-0.00665083,0.0,0 STARLINK-3282,1 50177U 21125X   22076.58334491 -.00665083  00000-0 -34165-1 0  9995,2 50177  53.2174 292.5905 0001776  46.2825 158.6509 15.18319855  3647,6889.055,94.842,512.144,509.697,0.0
50177.0,STARLINK-3282,PAYLOAD,2022-03-17 22:00:00,15.17852269,0.0001852,53.2174,291.074,44.6844,182.9504,-0.034578,-0.00664144,0.0,0 STARLINK-3282,1 50177U 21125X   22076.91667824 -.00664144  00000-0 -34578-1 0  9996,2 50177  53.2174 291.0740 0001852  44.6844 182.9504 15.17852269  3652,6890.47,94.871,513.611,511.059,0.0
50177.0,STARLINK-3282,PAYLOAD,2022-03-18 08:00:01,15.17267829,0.0001607,53.2174,289.1771,41.9032,303.3211,-0.035058,-0.00662205,0.0,0 STARLINK-3282,1 50177U 21125X   22077.33334491 -.00662205  00000-0 -35058-1 0  9994,2 50177  53.2174 289.1771 0001607  41.9032 303.3211 15.17267829 16853,6892.239000000001,94.907,515.212,512.997,0.0
50177.0,STARLINK-3282,PAYLOAD,2022-03-18 14:00:01,15.16919247,0.0001686,53.2175,288.0391,48.5889,222.7682,-0.035474,-0.00663308,0.0,0 STARLINK-3282,1 50177U 21125X   22077.58334491 -.00663308  00000-0 -35474-1 0  9998,2 50177  53.2175 288.0391 0001686  48.5889 222.7682 15.16919247  3657,6893.295,94.929,516.322,513.998,0.0
50177.0,STARLINK-3282,PAYLOAD,2022-03-18 22:00:00,15.16452939,0.0001753,53.2175,286.5261,45.1396,247.2363,-0.036027,-0.00664608,0.0,0 STARLINK-3282,1 50177U 21125X   22077.91667824 -.00664608  00000-0 -36027-1 0  9993,2 50177  53.2175 286.5261 0001753  45.1396 247.2363 15.16452939  3701,6894.708000000001,94.958,517.7819999999998,515.364,0.0
50177.0,STARLINK-3282,PAYLOAD,2022-03-19 14:00:01,15.15519036,0.0001669,53.2176,283.4977,43.9965,288.7383,-0.036876,-0.00662471,0.0,0 STARLINK-3282,1 50177U 21125X   22078.58334491 -.00662471  00000-0 -36876-1 0  9996,2 50177  53.2176 283.4977 0001669  43.9965 288.7383 15.15519036 17041,6897.54,95.017,520.556,518.254,0.0
50177.0,STARLINK-3282,PAYLOAD,2022-03-19 22:00:01,15.15054008,0.0001919,53.2175,281.9878,35.001,317.1335,-0.037584,-0.00666088,0.0,0 STARLINK-3282,1 50177U 21125X   22078.91668981 -.00666088  00000-0 -37584-1 0  9992,2 50177  53.2175 281.9878 0001919  35.0010 317.1335 15.15054008  3653,6898.9519999999975,95.046,522.141,519.493,0.0
